*******************************************************************************
Ephemeris / WWW_USER Mon Mar 24 06:59:06 2025 Pasadena, USA      / Horizons    
*******************************************************************************
Target body name: Pluto (999)                     {source: plu060_merged}
Center body name: Earth (399)                     {source: DE441}
Center-site name: Mauna Kea
*******************************************************************************
Start time      : A.D. 2018-Nov-08 03:54:00.0000 UT      
Stop  time      : A.D. 2018-Nov-08 16:17:00.0000 UT      
Step-size       : 1 minutes
*******************************************************************************
Target pole/equ : IAU_PLUTO                       {East-longitude positive}
Target radii    : 1188.3, 1188.3, 1188.3 km       {Equator_a, b, pole_c}       
Center geodetic : 204.5278, 19.8260847, 4.21024   {E-lon(deg),Lat(deg),Alt(km)}
Center cylindric: 204.5278, 6006.35451, 2151.0229 {E-lon(deg),Dxy(km),Dz(km)}
Center pole/equ : ITRF93                          {East-longitude positive}
Center radii    : 6378.137, 6378.137, 6356.752 km {Equator_a, b, pole_c}       
Target primary  : Sun
Vis. interferer : MOON (R_eq= 1737.400) km        {source: DE441}
Rel. light bend : Sun                             {source: plu060_merged}
Rel. lght bnd GM: 1.3271E+11 km^3/s^2                                          
Atmos refraction: NO (AIRLESS)
RA format       : HMS
Time format     : CAL 
Calendar mode   : Mixed Julian/Gregorian
RTS-only print  : NO       
EOP file        : eop.250321.p250617                                           
EOP coverage    : DATA-BASED 1962-JAN-20 TO 2025-MAR-21. PREDICTS-> 2025-JUN-16
Units conversion: 1 au= 149597870.700 km, c= 299792.458 km/s, 1 day= 86400.0 s 
Table cut-offs 1: Elevation (-90.0deg=NO ),Airmass (>38.000=NO), Daylight (YES)
Table cut-offs 2: Solar elongation (  0.0,180.0=NO ),Local Hour Angle( 0.0=NO )
Table cut-offs 3: RA/DEC angular rate (     0.0=NO )                           
*******************************************************************************
 Date__(UT)__HR:MN     R.A._________(ICRF)_________DEC
******************************************************
$$SOE
 2018-Nov-08 08:36     19 21 42.022167 -22 07 57.42444
 2018-Nov-08 08:37     19 21 42.025511 -22 07 57.42144
 2018-Nov-08 08:38     19 21 42.028855 -22 07 57.41844
 2018-Nov-08 08:39     19 21 42.032200 -22 07 57.41544
 2018-Nov-08 08:40     19 21 42.035545 -22 07 57.41244
 2018-Nov-08 08:41     19 21 42.038890 -22 07 57.40945
 2018-Nov-08 08:42     19 21 42.042236 -22 07 57.40645
 2018-Nov-08 08:43     19 21 42.045583 -22 07 57.40345
 2018-Nov-08 08:44     19 21 42.048929 -22 07 57.40045
 2018-Nov-08 08:45     19 21 42.052276 -22 07 57.39745
 2018-Nov-08 08:46     19 21 42.055624 -22 07 57.39446
 2018-Nov-08 08:47     19 21 42.058972 -22 07 57.39146
 2018-Nov-08 08:48     19 21 42.062320 -22 07 57.38846
 2018-Nov-08 08:49     19 21 42.065669 -22 07 57.38546
 2018-Nov-08 08:50     19 21 42.069018 -22 07 57.38246
 2018-Nov-08 08:51     19 21 42.072367 -22 07 57.37947
 2018-Nov-08 08:52     19 21 42.075717 -22 07 57.37647
 2018-Nov-08 08:53     19 21 42.079067 -22 07 57.37347
 2018-Nov-08 08:54     19 21 42.082418 -22 07 57.37047
 2018-Nov-08 08:55     19 21 42.085769 -22 07 57.36748
 2018-Nov-08 08:56     19 21 42.089120 -22 07 57.36448
 2018-Nov-08 08:57     19 21 42.092472 -22 07 57.36148
 2018-Nov-08 08:58     19 21 42.095824 -22 07 57.35848
 2018-Nov-08 08:59     19 21 42.099176 -22 07 57.35548
 2018-Nov-08 09:00     19 21 42.102529 -22 07 57.35249
 2018-Nov-08 09:01     19 21 42.105882 -22 07 57.34949
 2018-Nov-08 09:02     19 21 42.109236 -22 07 57.34649
 2018-Nov-08 09:03     19 21 42.112590 -22 07 57.34350
 2018-Nov-08 09:04     19 21 42.115944 -22 07 57.34050
 2018-Nov-08 09:05     19 21 42.119299 -22 07 57.33750
 2018-Nov-08 09:06     19 21 42.122654 -22 07 57.33451
 2018-Nov-08 09:07     19 21 42.126010 -22 07 57.33151
 2018-Nov-08 09:08     19 21 42.129366 -22 07 57.32851
 2018-Nov-08 09:09     19 21 42.132722 -22 07 57.32552
 2018-Nov-08 09:10     19 21 42.136079 -22 07 57.32252
 2018-Nov-08 09:11     19 21 42.139436 -22 07 57.31953
 2018-Nov-08 09:12     19 21 42.142793 -22 07 57.31653
 2018-Nov-08 09:13     19 21 42.146151 -22 07 57.31353
 2018-Nov-08 09:14     19 21 42.149510 -22 07 57.31054
 2018-Nov-08 09:15     19 21 42.152868 -22 07 57.30754
 2018-Nov-08 09:16     19 21 42.156227 -22 07 57.30455
 2018-Nov-08 09:17     19 21 42.159587 -22 07 57.30156
 2018-Nov-08 09:18     19 21 42.162946 -22 07 57.29856
 2018-Nov-08 09:19     19 21 42.166306 -22 07 57.29557
 2018-Nov-08 09:20     19 21 42.169667 -22 07 57.29257
 2018-Nov-08 09:21     19 21 42.173028 -22 07 57.28958
 2018-Nov-08 09:22     19 21 42.176389 -22 07 57.28659
 2018-Nov-08 09:23     19 21 42.179751 -22 07 57.28359
 2018-Nov-08 09:24     19 21 42.183113 -22 07 57.28060
 2018-Nov-08 09:25     19 21 42.186475 -22 07 57.27761
 2018-Nov-08 09:26     19 21 42.189838 -22 07 57.27462
 2018-Nov-08 09:27     19 21 42.193201 -22 07 57.27163
 2018-Nov-08 09:28     19 21 42.196565 -22 07 57.26863
 2018-Nov-08 09:29     19 21 42.199929 -22 07 57.26564
 2018-Nov-08 09:30     19 21 42.203293 -22 07 57.26265
 2018-Nov-08 09:31     19 21 42.206658 -22 07 57.25966
 2018-Nov-08 09:32     19 21 42.210023 -22 07 57.25667
 2018-Nov-08 09:33     19 21 42.213388 -22 07 57.25368
 2018-Nov-08 09:34     19 21 42.216754 -22 07 57.25069
 2018-Nov-08 09:35     19 21 42.220120 -22 07 57.24770
 2018-Nov-08 09:36     19 21 42.223487 -22 07 57.24471
 2018-Nov-08 09:37     19 21 42.226854 -22 07 57.24173
 2018-Nov-08 09:38     19 21 42.230221 -22 07 57.23874
 2018-Nov-08 09:39     19 21 42.233589 -22 07 57.23575
 2018-Nov-08 09:40     19 21 42.236957 -22 07 57.23276
 2018-Nov-08 09:41     19 21 42.240325 -22 07 57.22978
 2018-Nov-08 09:42     19 21 42.243694 -22 07 57.22679
 2018-Nov-08 09:43     19 21 42.247063 -22 07 57.22380
 2018-Nov-08 09:44     19 21 42.250433 -22 07 57.22082
 2018-Nov-08 09:45     19 21 42.253803 -22 07 57.21783
 2018-Nov-08 09:46     19 21 42.257173 -22 07 57.21485
 2018-Nov-08 09:47     19 21 42.260544 -22 07 57.21187
 2018-Nov-08 09:48     19 21 42.263915 -22 07 57.20888
 2018-Nov-08 09:49     19 21 42.267286 -22 07 57.20590
 2018-Nov-08 09:50     19 21 42.270658 -22 07 57.20292
 2018-Nov-08 09:51     19 21 42.274030 -22 07 57.19993
 2018-Nov-08 09:52     19 21 42.277402 -22 07 57.19695
 2018-Nov-08 09:53     19 21 42.280775 -22 07 57.19397
 2018-Nov-08 09:54     19 21 42.284149 -22 07 57.19099
 2018-Nov-08 09:55     19 21 42.287522 -22 07 57.18801
 2018-Nov-08 09:56     19 21 42.290896 -22 07 57.18503
 2018-Nov-08 09:57     19 21 42.294270 -22 07 57.18205
 2018-Nov-08 09:58     19 21 42.297645 -22 07 57.17907
 2018-Nov-08 09:59     19 21 42.301020 -22 07 57.17609
 2018-Nov-08 10:00     19 21 42.304396 -22 07 57.17312
 2018-Nov-08 10:01     19 21 42.307771 -22 07 57.17014
 2018-Nov-08 10:02     19 21 42.311148 -22 07 57.16716
 2018-Nov-08 10:03     19 21 42.314524 -22 07 57.16419
 2018-Nov-08 10:04     19 21 42.317901 -22 07 57.16121
 2018-Nov-08 10:05     19 21 42.321278 -22 07 57.15824
 2018-Nov-08 10:06     19 21 42.324656 -22 07 57.15526
 2018-Nov-08 10:07     19 21 42.328034 -22 07 57.15229
 2018-Nov-08 10:08     19 21 42.331412 -22 07 57.14932
 2018-Nov-08 10:09     19 21 42.334791 -22 07 57.14634
 2018-Nov-08 10:10     19 21 42.338170 -22 07 57.14337
 2018-Nov-08 10:11     19 21 42.341549 -22 07 57.14040
 2018-Nov-08 10:12     19 21 42.344929 -22 07 57.13743
 2018-Nov-08 10:13     19 21 42.348309 -22 07 57.13446
 2018-Nov-08 10:14     19 21 42.351690 -22 07 57.13149
 2018-Nov-08 10:15     19 21 42.355070 -22 07 57.12852
 2018-Nov-08 10:16     19 21 42.358452 -22 07 57.12555
 2018-Nov-08 10:17     19 21 42.361833 -22 07 57.12259
 2018-Nov-08 10:18     19 21 42.365215 -22 07 57.11962
 2018-Nov-08 10:19     19 21 42.368597 -22 07 57.11665
 2018-Nov-08 10:20     19 21 42.371980 -22 07 57.11369
 2018-Nov-08 10:21     19 21 42.375363 -22 07 57.11072
 2018-Nov-08 10:22     19 21 42.378746 -22 07 57.10776
 2018-Nov-08 10:23     19 21 42.382130 -22 07 57.10480
 2018-Nov-08 10:24     19 21 42.385514 -22 07 57.10184
 2018-Nov-08 10:25     19 21 42.388898 -22 07 57.09887
 2018-Nov-08 10:26     19 21 42.392283 -22 07 57.09591
 2018-Nov-08 10:27     19 21 42.395668 -22 07 57.09295
 2018-Nov-08 10:28     19 21 42.399053 -22 07 57.08999
 2018-Nov-08 10:29     19 21 42.402439 -22 07 57.08703
 2018-Nov-08 10:30     19 21 42.405825 -22 07 57.08408
 2018-Nov-08 10:31     19 21 42.409211 -22 07 57.08112
 2018-Nov-08 10:32     19 21 42.412598 -22 07 57.07816
 2018-Nov-08 10:33     19 21 42.415985 -22 07 57.07521
 2018-Nov-08 10:34     19 21 42.419373 -22 07 57.07225
 2018-Nov-08 10:35     19 21 42.422760 -22 07 57.06930
 2018-Nov-08 10:36     19 21 42.426148 -22 07 57.06634
 2018-Nov-08 10:37     19 21 42.429537 -22 07 57.06339
 2018-Nov-08 10:38     19 21 42.432926 -22 07 57.06044
 2018-Nov-08 10:39     19 21 42.436315 -22 07 57.05749
 2018-Nov-08 10:40     19 21 42.439704 -22 07 57.05454
 2018-Nov-08 10:41     19 21 42.443094 -22 07 57.05159
 2018-Nov-08 10:42     19 21 42.446484 -22 07 57.04864
 2018-Nov-08 10:43     19 21 42.449875 -22 07 57.04569
 2018-Nov-08 10:44     19 21 42.453266 -22 07 57.04275
 2018-Nov-08 10:45     19 21 42.456657 -22 07 57.03980
 2018-Nov-08 10:46     19 21 42.460048 -22 07 57.03686
 2018-Nov-08 10:47     19 21 42.463440 -22 07 57.03391
 2018-Nov-08 10:48     19 21 42.466832 -22 07 57.03097
 2018-Nov-08 10:49     19 21 42.470225 -22 07 57.02803
 2018-Nov-08 10:50     19 21 42.473618 -22 07 57.02508
 2018-Nov-08 10:51     19 21 42.477011 -22 07 57.02214
 2018-Nov-08 10:52     19 21 42.480404 -22 07 57.01920
 2018-Nov-08 10:53     19 21 42.483798 -22 07 57.01626
 2018-Nov-08 10:54     19 21 42.487192 -22 07 57.01333
 2018-Nov-08 10:55     19 21 42.490587 -22 07 57.01039
 2018-Nov-08 10:56     19 21 42.493981 -22 07 57.00745
